[{"OBJECT_NAME":"STARLINK-5327","OBJECT_ID":"2023-010Y","EPOCH":"2026-03-09T22:37:04.624032","MEAN_MOTION":14.98328369,"ECCENTRICITY":0.00029345,"INCLINATION":70.0014,"RA_OF_ASC_NODE":23.9539,"ARG_OF_PERICENTER":269.241,"MEAN_ANOMALY":90.8413,"EPHEMERIS_TYPE":0,"CLASSIFICATION_TYPE":"U","NORAD_CAT_ID":55291,"ELEMENT_SET_NO":999,"REV_AT_EPOCH":17330,"BSTAR":4.0965856e-5,"MEAN_MOTION_DOT":3.96e-6,"MEAN_MOTION_DDOT":0},{"OBJECT_NAME":"TELEOS-2","OBJECT_ID":"2023-057C","EPOCH":"2026-03-08T15:30:11.035584","MEAN_MOTION":14.96380118,"ECCENTRICITY":8.033e-5,"INCLINATION":9.9874,"RA_OF_ASC_NODE":216.2411,"ARG_OF_PERICENTER":295.2771,"MEAN_ANOMALY":64.7359,"EPHEMERIS_TYPE":0,"CLASSIFICATION_TYPE":"U","NORAD_CAT_ID":56310,"ELEMENT_SET_NO":999,"REV_AT_EPOCH":15771,"BSTAR":1.5043378e-5,"MEAN_MOTION_DOT":8.63e-6,"MEAN_MOTION_DDOT":0}]
